{
  "type": "FeatureCollection",
  "features": [
    {
      "type": "Feature",
      "properties": {
        "norad_id": 24946,
        "name": "IRIDIUM 33",
        "group": "iridium-33-debris",
        "lat": -21.11209495176752,
        "lon": -111.8168318182938,
        "alt_km": 775.1612670203804,
        "timestamp": "2025-12-16T03:53:27.440009+00:00",
        "meta_object_name": "IRIDIUM 33",
        "meta_object_id": "1997-051C",
        "meta_epoch": "2025-12-15T06:52:30.485280",
        "meta_mean_motion": 14.35039285,
        "meta_eccentricity": 0.00073309,
        "meta_inclination": 86.3869,
        "meta_ra_of_asc_node": 67.1527,
        "meta_arg_of_pericenter": 191.4448,
        "meta_mean_anomaly": 168.6583,
        "meta_ephemeris_type": 0,
        "meta_classification_type": "U",
        "meta_norad_cat_id": 24946,
        "meta_element_set_no": 999,
        "meta_rev_at_epoch": 47871,
        "meta_bstar": 0.00011903931,
        "meta_mean_motion_dot": 3.59e-06,
        "meta_mean_motion_ddot": 0,
        "tle_line1": "1 24946U 97051C   25349.28646395  .00000359  00000+0  11904-3 0  9997",
        "tle_line2": "2 24946  86.3869  67.1527 0007330 191.4448 168.6583 14.35039285478713"
      },
      "geometry": {
        "type": "Point",
        "coordinates": [
          -111.8168318182938,
          -21.11209495176752
        ]
      }
    },
    {
      "type": "Feature",
      "properties": {
        "norad_id": 33773,
        "name": "IRIDIUM 33 DEB",
        "group": "iridium-33-debris",
        "lat": -78.73783341595642,
        "lon": -102.43427640449059,
        "alt_km": 760.136095943918,
        "timestamp": "2025-12-16T03:53:27.440036+00:00",
        "meta_object_name": "IRIDIUM 33 DEB",
        "meta_object_id": "1997-051L",
        "meta_epoch": "2025-12-15T06:43:35.458464",
        "meta_mean_motion": 14.43262766,
        "meta_eccentricity": 0.0012715,
        "meta_inclination": 86.4007,
        "meta_ra_of_asc_node": 59.5129,
        "meta_arg_of_pericenter": 138.9199,
        "meta_mean_anomaly": 221.2961,
        "meta_ephemeris_type": 0,
        "meta_classification_type": "U",
        "meta_norad_cat_id": 33773,
        "meta_element_set_no": 999,
        "meta_rev_at_epoch": 88384,
        "meta_bstar": 0.00032432546,
        "meta_mean_motion_dot": 1.112e-05,
        "meta_mean_motion_ddot": 0,
        "tle_line1": "1 33773U 97051L   25349.28027151  .00001112  00000+0  32433-3 0  9996",
        "tle_line2": "2 33773  86.4007  59.5129 0012715 138.9199 221.2961 14.43262766883842"
      },
      "geometry": {
        "type": "Point",
        "coordinates": [
          -102.43427640449059,
          -78.73783341595642
        ]
      }
    },
    {
      "type": "Feature",
      "properties": {
        "norad_id": 33775,
        "name": "IRIDIUM 33 DEB",
        "group": "iridium-33-debris",
        "lat": -39.31444319039281,
        "lon": 45.10754235792203,
        "alt_km": 770.5594988940911,
        "timestamp": "2025-12-16T03:53:27.440052+00:00",
        "meta_object_name": "IRIDIUM 33 DEB",
        "meta_object_id": "1997-051N",
        "meta_epoch": "2025-12-15T05:01:00.177312",
        "meta_mean_motion": 14.4147387,
        "meta_eccentricity": 0.00145595,
        "meta_inclination": 86.3636,
        "meta_ra_of_asc_node": 48.4995,
        "meta_arg_of_pericenter": 147.093,
        "meta_mean_anomaly": 270.8364,
        "meta_ephemeris_type": 0,
        "meta_classification_type": "U",
        "meta_norad_cat_id": 33775,
        "meta_element_set_no": 999,
        "meta_rev_at_epoch": 88176,
        "meta_bstar": 0.00033418916,
        "meta_mean_motion_dot": 1.105e-05,
        "meta_mean_motion_ddot": 0,
        "tle_line1": "1 33775U 97051N   25349.20902983  .00001105  00000+0  33419-3 0  9992",
        "tle_line2": "2 33775  86.3636  48.4995 0014559 147.0930 270.8364 14.41473870881765"
      },
      "geometry": {
        "type": "Point",
        "coordinates": [
          45.10754235792203,
          -39.31444319039281
        ]
      }
    },
    {
      "type": "Feature",
      "properties": {
        "norad_id": 33776,
        "name": "IRIDIUM 33 DEB",
        "group": "iridium-33-debris",
        "lat": 29.340964450225098,
        "lon": -102.68697432605306,
        "alt_km": 753.7678307425012,
        "timestamp": "2025-12-16T03:53:27.440066+00:00",
        "meta_object_name": "IRIDIUM 33 DEB",
        "meta_object_id": "1997-051P",
        "meta_epoch": "2025-12-15T07:25:59.463264",
        "meta_mean_motion": 14.3823969,
        "meta_eccentricity": 0.00146572,
        "meta_inclination": 86.4038,
        "meta_ra_of_asc_node": 79.6968,
        "meta_arg_of_pericenter": 181.8615,
        "meta_mean_anomaly": 238.0359,
        "meta_ephemeris_type": 0,
        "meta_classification_type": "U",
        "meta_norad_cat_id": 33776,
        "meta_element_set_no": 999,
        "meta_rev_at_epoch": 88119,
        "meta_bstar": 0.00029251877,
        "meta_mean_motion_dot": 9.09e-06,
        "meta_mean_motion_ddot": 0,
        "tle_line1": "1 33776U 97051P   25349.30971601  .00000909  00000+0  29252-3 0  9998",
        "tle_line2": "2 33776  86.4038  79.6968 0014657 181.8615 238.0359 14.38239690881197"
      },
      "geometry": {
        "type": "Point",
        "coordinates": [
          -102.68697432605306,
          29.340964450225098
        ]
      }
    },
    {
      "type": "Feature",
      "properties": {
        "norad_id": 33777,
        "name": "IRIDIUM 33 DEB",
        "group": "iridium-33-debris",
        "lat": 27.670635180876136,
        "lon": -148.18770025538686,
        "alt_km": 705.6927432404282,
        "timestamp": "2025-12-16T03:53:27.440078+00:00",
        "meta_object_name": "IRIDIUM 33 DEB",
        "meta_object_id": "1997-051Q",
        "meta_epoch": "2025-12-15T09:02:44.030400",
        "meta_mean_motion": 14.55635775,
        "meta_eccentricity": 0.00053219,
        "meta_inclination": 86.3789,
        "meta_ra_of_asc_node": 34.0566,
        "meta_arg_of_pericenter": 236.7349,
        "meta_mean_anomaly": 123.3349,
        "meta_ephemeris_type": 0,
        "meta_classification_type": "U",
        "meta_norad_cat_id": 33777,
        "meta_element_set_no": 999,
        "meta_rev_at_epoch": 88572,
        "meta_bstar": 0.00062723602,
        "meta_mean_motion_dot": 2.758e-05,
        "meta_mean_motion_ddot": 0,
        "tle_line1": "1 33777U 97051Q   25349.37689850  .00002758  00000+0  62724-3 0  9993",
        "tle_line2": "2 33777  86.3789  34.0566 0005321 236.7349 123.3349 14.55635775885722"
      },
      "geometry": {
        "type": "Point",
        "coordinates": [
          -148.18770025538686,
          27.670635180876136
        ]
      }
    },
    {
      "type": "Feature",
      "properties": {
        "norad_id": 33850,
        "name": "IRIDIUM 33 DEB",
        "group": "iridium-33-debris",
        "lat": -49.978356425685,
        "lon": 24.3389023676723,
        "alt_km": 766.7056811935854,
        "timestamp": "2025-12-16T03:53:27.440090+00:00",
        "meta_object_name": "IRIDIUM 33 DEB",
        "meta_object_id": "1997-051T",
        "meta_epoch": "2025-12-15T03:23:34.994400",
        "meta_mean_motion": 14.42150781,
        "meta_eccentricity": 0.00124612,
        "meta_inclination": 86.3417,
        "meta_ra_of_asc_node": 29.1471,
        "meta_arg_of_pericenter": 153.7451,
        "meta_mean_anomaly": 260.0881,
        "meta_ephemeris_type": 0,
        "meta_classification_type": "U",
        "meta_norad_cat_id": 33850,
        "meta_element_set_no": 999,
        "meta_rev_at_epoch": 88187,
        "meta_bstar": 0.00030116183,
        "meta_mean_motion_dot": 1.011e-05,
        "meta_mean_motion_ddot": 0,
        "tle_line1": "1 33850U 97051T   25349.14137725  .00001011  00000+0  30116-3 0  9990",
        "tle_line2": "2 33850  86.3417  29.1471 0012461 153.7451 260.0881 14.42150781881874"
      },
      "geometry": {
        "type": "Point",
        "coordinates": [
          24.3389023676723,
          -49.978356425685
        ]
      }
    },
    {
      "type": "Feature",
      "properties": {
        "norad_id": 33853,
        "name": "IRIDIUM 33 DEB",
        "group": "iridium-33-debris",
        "lat": 18.922619419702276,
        "lon": 166.93633017336387,
        "alt_km": 829.4591923554053,
        "timestamp": "2025-12-16T03:53:27.440102+00:00",
        "meta_object_name": "IRIDIUM 33 DEB",
        "meta_object_id": "1997-051W",
        "meta_epoch": "2025-12-14T23:46:56.777088",
        "meta_mean_motion": 13.99076853,
        "meta_eccentricity": 0.0207,
        "meta_inclination": 85.9995,
        "meta_ra_of_asc_node": 348.8243,
        "meta_arg_of_pericenter": 228.8378,
        "meta_mean_anomaly": 158.8905,
        "meta_ephemeris_type": 0,
        "meta_classification_type": "U",
        "meta_norad_cat_id": 33853,
        "meta_element_set_no": 999,
        "meta_rev_at_epoch": 85377,
        "meta_bstar": 0.0015266961,
        "meta_mean_motion_dot": 2.67e-05,
        "meta_mean_motion_ddot": 0,
        "tle_line1": "1 33853U 97051W   25348.99093492  .00002670  00000+0  15267-2 0  9998",
        "tle_line2": "2 33853  85.9995 348.8243 0207000 228.8378 158.8905 13.99076853853775"
      },
      "geometry": {
        "type": "Point",
        "coordinates": [
          166.93633017336387,
          18.922619419702276
        ]
      }
    }
  ]
}